KUIPER-00104            
1 65142U 25171L   25238.55630507  .00023805  00000+0  69025-3 0  9997
2 65142  51.8780 332.2100 0004486 189.4884 170.6018 15.35407608  3559
KUIPER-00105            
1 65143U 25171M   25238.55192138  .00027927  00000+0  79431-3 0  9992
2 65143  51.8775 332.1790 0005879 171.7194 188.3890 15.35915199  3567
KUIPER-00106            
1 65144U 25171N   25238.55515759  .00025090  00000+0  72245-3 0  9996
2 65144  51.8772 332.1958 0005277 182.0798 178.0167 15.35593097  3560
KUIPER-00107            
1 65145U 25171P   25238.55553306  .00024898  00000+0  71831-3 0  9992
2 65145  51.8781 332.2052 0005300 184.0286 176.0658 15.35536978  3566
KUIPER-00108            
1 65146U 25171Q   25238.55880607  .00015309  00000+0  45284-3 0  9990
2 65146  51.8782 332.2271 0005415 201.8159 158.2597 15.35086732  3567
KUIPER-00109            
1 65147U 25171R   25238.55363711  .00027576  00000+0  79106-3 0  9992
2 65147  51.8773 332.1875 0005317 178.8547 181.2453 15.35657149  3554
KUIPER-00110            
1 65148U 25171S   25238.55479189  .00026518  00000+0  76188-3 0  9992
2 65148  51.8780 332.2007 0005226 179.6882 180.4108 15.35631854  3554
KUIPER-00111            
1 65149U 25171T   25238.55738933  .00026807  00000+0  77688-3 0  9995
2 65149  51.8781 332.2178 0004513 195.9492 164.1353 15.35356537  3554
