<?xml version="1.0" encoding="UTF-8"?>
<ndm xmlns:xsi="http://www.w3.org/2001/XMLSchema-instance" xsi:noNamespaceSchemaLocation="https://sanaregistry.org/r/ndmxml_unqualified/ndmxml-2.0.0-master-2.0.xsd">
<omm id="CCSDS_OMM_VERS" version="2.0">
<header><CREATION_DATE/><ORIGINATOR/></header><body><segment><metadata><OBJECT_NAME>KUIPER-00104</OBJECT_NAME><OBJECT_ID>2025-171L</OBJECT_ID><CENTER_NAME>EARTH</CENTER_NAME><REF_FRAME>TEME</REF_FRAME><TIME_SYSTEM>UTC</TIME_SYSTEM><MEAN_ELEMENT_THEORY>SGP4</MEAN_ELEMENT_THEORY></metadata><data><meanElements><EPOCH>2025-08-26T13:21:04.758048</EPOCH><MEAN_MOTION>15.35407608</MEAN_MOTION><ECCENTRICITY>.00044861</ECCENTRICITY><INCLINATION>51.8780</INCLINATION><RA_OF_ASC_NODE>332.2100</RA_OF_ASC_NODE><ARG_OF_PERICENTER>189.4884</ARG_OF_PERICENTER><MEAN_ANOMALY>170.6018</MEAN_ANOMALY></meanElements><tleParameters><EPHEMERIS_TYPE>0</EPHEMERIS_TYPE><CLASSIFICATION_TYPE>U</CLASSIFICATION_TYPE><NORAD_CAT_ID>65142</NORAD_CAT_ID><ELEMENT_SET_NO>999</ELEMENT_SET_NO><REV_AT_EPOCH>355</REV_AT_EPOCH><BSTAR>.69025213E-3</BSTAR><MEAN_MOTION_DOT>.23805E-3</MEAN_MOTION_DOT><MEAN_MOTION_DDOT>0</MEAN_MOTION_DDOT></tleParameters></data></segment></body></omm>
<omm id="CCSDS_OMM_VERS" version="2.0">
<header><CREATION_DATE/><ORIGINATOR/></header><body><segment><metadata><OBJECT_NAME>KUIPER-00105</OBJECT_NAME><OBJECT_ID>2025-171M</OBJECT_ID><CENTER_NAME>EARTH</CENTER_NAME><REF_FRAME>TEME</REF_FRAME><TIME_SYSTEM>UTC</TIME_SYSTEM><MEAN_ELEMENT_THEORY>SGP4</MEAN_ELEMENT_THEORY></metadata><data><meanElements><EPOCH>2025-08-26T13:14:46.007232</EPOCH><MEAN_MOTION>15.35915199</MEAN_MOTION><ECCENTRICITY>.00058796</ECCENTRICITY><INCLINATION>51.8775</INCLINATION><RA_OF_ASC_NODE>332.1790</RA_OF_ASC_NODE><ARG_OF_PERICENTER>171.7194</ARG_OF_PERICENTER><MEAN_ANOMALY>188.3890</MEAN_ANOMALY></meanElements><tleParameters><EPHEMERIS_TYPE>0</EPHEMERIS_TYPE><CLASSIFICATION_TYPE>U</CLASSIFICATION_TYPE><NORAD_CAT_ID>65143</NORAD_CAT_ID><ELEMENT_SET_NO>999</ELEMENT_SET_NO><REV_AT_EPOCH>356</REV_AT_EPOCH><BSTAR>.79430958E-3</BSTAR><MEAN_MOTION_DOT>.27927E-3</MEAN_MOTION_DOT><MEAN_MOTION_DDOT>0</MEAN_MOTION_DDOT></tleParameters></data></segment></body></omm>
<omm id="CCSDS_OMM_VERS" version="2.0">
<header><CREATION_DATE/><ORIGINATOR/></header><body><segment><metadata><OBJECT_NAME>KUIPER-00106</OBJECT_NAME><OBJECT_ID>2025-171N</OBJECT_ID><CENTER_NAME>EARTH</CENTER_NAME><REF_FRAME>TEME</REF_FRAME><TIME_SYSTEM>UTC</TIME_SYSTEM><MEAN_ELEMENT_THEORY>SGP4</MEAN_ELEMENT_THEORY></metadata><data><meanElements><EPOCH>2025-08-26T13:19:25.615776</EPOCH><MEAN_MOTION>15.35593097</MEAN_MOTION><ECCENTRICITY>.00052776</ECCENTRICITY><INCLINATION>51.8772</INCLINATION><RA_OF_ASC_NODE>332.1958</RA_OF_ASC_NODE><ARG_OF_PERICENTER>182.0798</ARG_OF_PERICENTER><MEAN_ANOMALY>178.0167</MEAN_ANOMALY></meanElements><tleParameters><EPHEMERIS_TYPE>0</EPHEMERIS_TYPE><CLASSIFICATION_TYPE>U</CLASSIFICATION_TYPE><NORAD_CAT_ID>65144</NORAD_CAT_ID><ELEMENT_SET_NO>999</ELEMENT_SET_NO><REV_AT_EPOCH>356</REV_AT_EPOCH><BSTAR>.72245025E-3</BSTAR><MEAN_MOTION_DOT>.2509E-3</MEAN_MOTION_DOT><MEAN_MOTION_DDOT>0</MEAN_MOTION_DDOT></tleParameters></data></segment></body></omm>
<omm id="CCSDS_OMM_VERS" version="2.0">
<header><CREATION_DATE/><ORIGINATOR/></header><body><segment><metadata><OBJECT_NAME>KUIPER-00107</OBJECT_NAME><OBJECT_ID>2025-171P</OBJECT_ID><CENTER_NAME>EARTH</CENTER_NAME><REF_FRAME>TEME</REF_FRAME><TIME_SYSTEM>UTC</TIME_SYSTEM><MEAN_ELEMENT_THEORY>SGP4</MEAN_ELEMENT_THEORY></metadata><data><meanElements><EPOCH>2025-08-26T13:19:58.056384</EPOCH><MEAN_MOTION>15.35536978</MEAN_MOTION><ECCENTRICITY>.00053003</ECCENTRICITY><INCLINATION>51.8781</INCLINATION><RA_OF_ASC_NODE>332.2052</RA_OF_ASC_NODE><ARG_OF_PERICENTER>184.0286</ARG_OF_PERICENTER><MEAN_ANOMALY>176.0658</MEAN_ANOMALY></meanElements><tleParameters><EPHEMERIS_TYPE>0</EPHEMERIS_TYPE><CLASSIFICATION_TYPE>U</CLASSIFICATION_TYPE><NORAD_CAT_ID>65145</NORAD_CAT_ID><ELEMENT_SET_NO>999</ELEMENT_SET_NO><REV_AT_EPOCH>356</REV_AT_EPOCH><BSTAR>.71831482E-3</BSTAR><MEAN_MOTION_DOT>.24898E-3</MEAN_MOTION_DOT><MEAN_MOTION_DDOT>0</MEAN_MOTION_DDOT></tleParameters></data></segment></body></omm>
<omm id="CCSDS_OMM_VERS" version="2.0">
<header><CREATION_DATE/><ORIGINATOR/></header><body><segment><metadata><OBJECT_NAME>KUIPER-00108</OBJECT_NAME><OBJECT_ID>2025-171Q</OBJECT_ID><CENTER_NAME>EARTH</CENTER_NAME><REF_FRAME>TEME</REF_FRAME><TIME_SYSTEM>UTC</TIME_SYSTEM><MEAN_ELEMENT_THEORY>SGP4</MEAN_ELEMENT_THEORY></metadata><data><meanElements><EPOCH>2025-08-26T13:24:40.844448</EPOCH><MEAN_MOTION>15.35086732</MEAN_MOTION><ECCENTRICITY>.00054155</ECCENTRICITY><INCLINATION>51.8782</INCLINATION><RA_OF_ASC_NODE>332.2271</RA_OF_ASC_NODE><ARG_OF_PERICENTER>201.8159</ARG_OF_PERICENTER><MEAN_ANOMALY>158.2597</MEAN_ANOMALY></meanElements><tleParameters><EPHEMERIS_TYPE>0</EPHEMERIS_TYPE><CLASSIFICATION_TYPE>U</CLASSIFICATION_TYPE><NORAD_CAT_ID>65146</NORAD_CAT_ID><ELEMENT_SET_NO>999</ELEMENT_SET_NO><REV_AT_EPOCH>356</REV_AT_EPOCH><BSTAR>.45284113E-3</BSTAR><MEAN_MOTION_DOT>.15309E-3</MEAN_MOTION_DOT><MEAN_MOTION_DDOT>0</MEAN_MOTION_DDOT></tleParameters></data></segment></body></omm>
<omm id="CCSDS_OMM_VERS" version="2.0">
<header><CREATION_DATE/><ORIGINATOR/></header><body><segment><metadata><OBJECT_NAME>KUIPER-00109</OBJECT_NAME><OBJECT_ID>2025-171R</OBJECT_ID><CENTER_NAME>EARTH</CENTER_NAME><REF_FRAME>TEME</REF_FRAME><TIME_SYSTEM>UTC</TIME_SYSTEM><MEAN_ELEMENT_THEORY>SGP4</MEAN_ELEMENT_THEORY></metadata><data><meanElements><EPOCH>2025-08-26T13:17:14.246304</EPOCH><MEAN_MOTION>15.35657149</MEAN_MOTION><ECCENTRICITY>.00053175</ECCENTRICITY><INCLINATION>51.8773</INCLINATION><RA_OF_ASC_NODE>332.1875</RA_OF_ASC_NODE><ARG_OF_PERICENTER>178.8547</ARG_OF_PERICENTER><MEAN_ANOMALY>181.2453</MEAN_ANOMALY></meanElements><tleParameters><EPHEMERIS_TYPE>0</EPHEMERIS_TYPE><CLASSIFICATION_TYPE>U</CLASSIFICATION_TYPE><NORAD_CAT_ID>65147</NORAD_CAT_ID><ELEMENT_SET_NO>999</ELEMENT_SET_NO><REV_AT_EPOCH>355</REV_AT_EPOCH><BSTAR>.79105999E-3</BSTAR><MEAN_MOTION_DOT>.27576E-3</MEAN_MOTION_DOT><MEAN_MOTION_DDOT>0</MEAN_MOTION_DDOT></tleParameters></data></segment></body></omm>
<omm id="CCSDS_OMM_VERS" version="2.0">
<header><CREATION_DATE/><ORIGINATOR/></header><body><segment><metadata><OBJECT_NAME>KUIPER-00110</OBJECT_NAME><OBJECT_ID>2025-171S</OBJECT_ID><CENTER_NAME>EARTH</CENTER_NAME><REF_FRAME>TEME</REF_FRAME><TIME_SYSTEM>UTC</TIME_SYSTEM><MEAN_ELEMENT_THEORY>SGP4</MEAN_ELEMENT_THEORY></metadata><data><meanElements><EPOCH>2025-08-26T13:18:54.019296</EPOCH><MEAN_MOTION>15.35631854</MEAN_MOTION><ECCENTRICITY>.00052269</ECCENTRICITY><INCLINATION>51.8780</INCLINATION><RA_OF_ASC_NODE>332.2007</RA_OF_ASC_NODE><ARG_OF_PERICENTER>179.6882</ARG_OF_PERICENTER><MEAN_ANOMALY>180.4108</MEAN_ANOMALY></meanElements><tleParameters><EPHEMERIS_TYPE>0</EPHEMERIS_TYPE><CLASSIFICATION_TYPE>U</CLASSIFICATION_TYPE><NORAD_CAT_ID>65148</NORAD_CAT_ID><ELEMENT_SET_NO>999</ELEMENT_SET_NO><REV_AT_EPOCH>355</REV_AT_EPOCH><BSTAR>.76187741E-3</BSTAR><MEAN_MOTION_DOT>.26518E-3</MEAN_MOTION_DOT><MEAN_MOTION_DDOT>0</MEAN_MOTION_DDOT></tleParameters></data></segment></body></omm>
<omm id="CCSDS_OMM_VERS" version="2.0">
<header><CREATION_DATE/><ORIGINATOR/></header><body><segment><metadata><OBJECT_NAME>KUIPER-00111</OBJECT_NAME><OBJECT_ID>2025-171T</OBJECT_ID><CENTER_NAME>EARTH</CENTER_NAME><REF_FRAME>TEME</REF_FRAME><TIME_SYSTEM>UTC</TIME_SYSTEM><MEAN_ELEMENT_THEORY>SGP4</MEAN_ELEMENT_THEORY></metadata><data><meanElements><EPOCH>2025-08-26T13:22:38.438112</EPOCH><MEAN_MOTION>15.35356537</MEAN_MOTION><ECCENTRICITY>.00045139</ECCENTRICITY><INCLINATION>51.8781</INCLINATION><RA_OF_ASC_NODE>332.2178</RA_OF_ASC_NODE><ARG_OF_PERICENTER>195.9492</ARG_OF_PERICENTER><MEAN_ANOMALY>164.1353</MEAN_ANOMALY></meanElements><tleParameters><EPHEMERIS_TYPE>0</EPHEMERIS_TYPE><CLASSIFICATION_TYPE>U</CLASSIFICATION_TYPE><NORAD_CAT_ID>65149</NORAD_CAT_ID><ELEMENT_SET_NO>999</ELEMENT_SET_NO><REV_AT_EPOCH>355</REV_AT_EPOCH><BSTAR>.77687573E-3</BSTAR><MEAN_MOTION_DOT>.26807E-3</MEAN_MOTION_DOT><MEAN_MOTION_DDOT>0</MEAN_MOTION_DDOT></tleParameters></data></segment></body></omm>

</ndm>
